<?xml version="1.0" encoding="UTF-8"?>
<gpx version="1.1" creator="turnaround-sample" xmlns="http://www.topografix.com/GPX/1/1">
  <metadata>
    <name>Sample ridge loop</name>
    <desc>Synthetic route for demos and screenshots — not a real trail. Do not navigate with it.</desc>
  </metadata>
  <trk>
    <name>Sample ridge loop (synthetic)</name>
    <trkseg>
      <trkpt lat="27.78800" lon="85.36500"><ele>1390</ele></trkpt>
      <trkpt lat="27.78877" lon="85.36524"><ele>1408</ele></trkpt>
      <trkpt lat="27.78953" lon="85.36550"><ele>1419</ele></trkpt>
      <trkpt lat="27.79028" lon="85.36578"><ele>1421</ele></trkpt>
      <trkpt lat="27.79103" lon="85.36606"><ele>1420</ele></trkpt>
      <trkpt lat="27.79175" lon="85.36634"><ele>1423</ele></trkpt>
      <trkpt lat="27.79246" lon="85.36661"><ele>1433</ele></trkpt>
      <trkpt lat="27.79314" lon="85.36686"><ele>1441</ele></trkpt>
      <trkpt lat="27.79380" lon="85.36709"><ele>1442</ele></trkpt>
      <trkpt lat="27.79443" lon="85.36731"><ele>1436</ele></trkpt>
      <trkpt lat="27.79503" lon="85.36751"><ele>1431</ele></trkpt>
      <trkpt lat="27.79559" lon="85.36771"><ele>1436</ele></trkpt>
      <trkpt lat="27.79612" lon="85.36791"><ele>1453</ele></trkpt>
      <trkpt lat="27.79662" lon="85.36812"><ele>1476</ele></trkpt>
      <trkpt lat="27.79708" lon="85.36834"><ele>1496</ele></trkpt>
      <trkpt lat="27.79750" lon="85.36860"><ele>1509</ele></trkpt>
      <trkpt lat="27.79788" lon="85.36889"><ele>1522</ele></trkpt>
      <trkpt lat="27.79823" lon="85.36923"><ele>1542</ele></trkpt>
      <trkpt lat="27.79855" lon="85.36962"><ele>1568</ele></trkpt>
      <trkpt lat="27.79883" lon="85.37009"><ele>1593</ele></trkpt>
      <trkpt lat="27.79908" lon="85.37061"><ele>1610</ele></trkpt>
      <trkpt lat="27.79929" lon="85.37121"><ele>1614</ele></trkpt>
      <trkpt lat="27.79948" lon="85.37188"><ele>1613</ele></trkpt>
      <trkpt lat="27.79964" lon="85.37262"><ele>1617</ele></trkpt>
      <trkpt lat="27.79978" lon="85.37343"><ele>1628</ele></trkpt>
      <trkpt lat="27.79990" lon="85.37428"><ele>1644</ele></trkpt>
      <trkpt lat="27.79999" lon="85.37519"><ele>1657</ele></trkpt>
      <trkpt lat="27.80007" lon="85.37613"><ele>1664</ele></trkpt>
      <trkpt lat="27.80013" lon="85.37709"><ele>1671</ele></trkpt>
      <trkpt lat="27.80018" lon="85.37807"><ele>1687</ele></trkpt>
      <trkpt lat="27.80022" lon="85.37904"><ele>1715</ele></trkpt>
      <trkpt lat="27.80025" lon="85.38000"><ele>1747</ele></trkpt>
      <trkpt lat="27.80027" lon="85.38093"><ele>1775</ele></trkpt>
      <trkpt lat="27.80029" lon="85.38183"><ele>1793</ele></trkpt>
      <trkpt lat="27.80030" lon="85.38269"><ele>1804</ele></trkpt>
      <trkpt lat="27.80030" lon="85.38350"><ele>1817</ele></trkpt>
      <trkpt lat="27.80030" lon="85.38426"><ele>1834</ele></trkpt>
      <trkpt lat="27.80029" lon="85.38497"><ele>1852</ele></trkpt>
      <trkpt lat="27.80027" lon="85.38563"><ele>1864</ele></trkpt>
      <trkpt lat="27.80025" lon="85.38625"><ele>1866</ele></trkpt>
      <trkpt lat="27.80022" lon="85.38683"><ele>1862</ele></trkpt>
      <trkpt lat="27.80018" lon="85.38738"><ele>1864</ele></trkpt>
      <trkpt lat="27.80013" lon="85.38791"><ele>1877</ele></trkpt>
      <trkpt lat="27.80007" lon="85.38843"><ele>1898</ele></trkpt>
      <trkpt lat="27.79999" lon="85.38894"><ele>1919</ele></trkpt>
      <trkpt lat="27.79990" lon="85.38947"><ele>1934</ele></trkpt>
      <trkpt lat="27.79978" lon="85.39001"><ele>1945</ele></trkpt>
      <trkpt lat="27.79964" lon="85.39057"><ele>1960</ele></trkpt>
      <trkpt lat="27.79948" lon="85.39117"><ele>1983</ele></trkpt>
      <trkpt lat="27.79929" lon="85.39179"><ele>2009</ele></trkpt>
      <trkpt lat="27.79908" lon="85.39244"><ele>2030</ele></trkpt>
      <trkpt lat="27.79883" lon="85.39311"><ele>2038</ele></trkpt>
      <trkpt lat="27.79855" lon="85.39381"><ele>2036</ele></trkpt>
      <trkpt lat="27.79823" lon="85.39453"><ele>2032</ele></trkpt>
      <trkpt lat="27.79788" lon="85.39524"><ele>2035</ele></trkpt>
      <trkpt lat="27.79750" lon="85.39596"><ele>2044</ele></trkpt>
      <trkpt lat="27.79708" lon="85.39666"><ele>2050</ele></trkpt>
      <trkpt lat="27.79662" lon="85.39733"><ele>2050</ele></trkpt>
      <trkpt lat="27.79612" lon="85.39796"><ele>2046</ele></trkpt>
      <trkpt lat="27.79559" lon="85.39853"><ele>2046</ele></trkpt>
      <trkpt lat="27.79503" lon="85.39905"><ele>2057</ele></trkpt>
      <trkpt lat="27.79443" lon="85.39949"><ele>2078</ele></trkpt>
      <trkpt lat="27.79380" lon="85.39986"><ele>2098</ele></trkpt>
      <trkpt lat="27.79314" lon="85.40014"><ele>2110</ele></trkpt>
      <trkpt lat="27.79246" lon="85.40034"><ele>2113</ele></trkpt>
      <trkpt lat="27.79175" lon="85.40046"><ele>2114</ele></trkpt>
      <trkpt lat="27.79103" lon="85.40050"><ele>2120</ele></trkpt>
      <trkpt lat="27.79028" lon="85.40047"><ele>2128</ele></trkpt>
      <trkpt lat="27.78953" lon="85.40036"><ele>2133</ele></trkpt>
      <trkpt lat="27.78877" lon="85.40020"><ele>2126</ele></trkpt>
      <trkpt lat="27.78800" lon="85.40000"><ele>2110</ele></trkpt>
      <trkpt lat="27.78723" lon="85.39976"><ele>2093</ele></trkpt>
      <trkpt lat="27.78647" lon="85.39950"><ele>2085</ele></trkpt>
      <trkpt lat="27.78572" lon="85.39922"><ele>2086</ele></trkpt>
      <trkpt lat="27.78497" lon="85.39894"><ele>2091</ele></trkpt>
      <trkpt lat="27.78425" lon="85.39866"><ele>2091</ele></trkpt>
      <trkpt lat="27.78354" lon="85.39839"><ele>2086</ele></trkpt>
      <trkpt lat="27.78286" lon="85.39814"><ele>2082</ele></trkpt>
      <trkpt lat="27.78220" lon="85.39791"><ele>2085</ele></trkpt>
      <trkpt lat="27.78157" lon="85.39769"><ele>2096</ele></trkpt>
      <trkpt lat="27.78097" lon="85.39749"><ele>2106</ele></trkpt>
      <trkpt lat="27.78041" lon="85.39729"><ele>2105</ele></trkpt>
      <trkpt lat="27.77988" lon="85.39709"><ele>2092</ele></trkpt>
      <trkpt lat="27.77938" lon="85.39688"><ele>2074</ele></trkpt>
      <trkpt lat="27.77892" lon="85.39666"><ele>2059</ele></trkpt>
      <trkpt lat="27.77850" lon="85.39640"><ele>2049</ele></trkpt>
      <trkpt lat="27.77812" lon="85.39611"><ele>2041</ele></trkpt>
      <trkpt lat="27.77777" lon="85.39577"><ele>2026</ele></trkpt>
      <trkpt lat="27.77745" lon="85.39538"><ele>2004</ele></trkpt>
      <trkpt lat="27.77717" lon="85.39491"><ele>1982</ele></trkpt>
      <trkpt lat="27.77692" lon="85.39439"><ele>1969</ele></trkpt>
      <trkpt lat="27.77671" lon="85.39379"><ele>1968</ele></trkpt>
      <trkpt lat="27.77652" lon="85.39312"><ele>1972</ele></trkpt>
      <trkpt lat="27.77636" lon="85.39238"><ele>1972</ele></trkpt>
      <trkpt lat="27.77622" lon="85.39157"><ele>1963</ele></trkpt>
      <trkpt lat="27.77610" lon="85.39072"><ele>1950</ele></trkpt>
      <trkpt lat="27.77601" lon="85.38981"><ele>1940</ele></trkpt>
      <trkpt lat="27.77593" lon="85.38887"><ele>1935</ele></trkpt>
      <trkpt lat="27.77587" lon="85.38791"><ele>1929</ele></trkpt>
      <trkpt lat="27.77582" lon="85.38693"><ele>1915</ele></trkpt>
      <trkpt lat="27.77578" lon="85.38596"><ele>1889</ele></trkpt>
      <trkpt lat="27.77575" lon="85.38500"><ele>1858</ele></trkpt>
      <trkpt lat="27.77573" lon="85.38407"><ele>1831</ele></trkpt>
      <trkpt lat="27.77571" lon="85.38317"><ele>1813</ele></trkpt>
      <trkpt lat="27.77570" lon="85.38231"><ele>1803</ele></trkpt>
      <trkpt lat="27.77570" lon="85.38150"><ele>1791</ele></trkpt>
      <trkpt lat="27.77570" lon="85.38074"><ele>1773</ele></trkpt>
      <trkpt lat="27.77571" lon="85.38003"><ele>1754</ele></trkpt>
      <trkpt lat="27.77573" lon="85.37937"><ele>1742</ele></trkpt>
      <trkpt lat="27.77575" lon="85.37875"><ele>1739</ele></trkpt>
      <trkpt lat="27.77578" lon="85.37817"><ele>1742</ele></trkpt>
      <trkpt lat="27.77582" lon="85.37762"><ele>1738</ele></trkpt>
      <trkpt lat="27.77587" lon="85.37709"><ele>1724</ele></trkpt>
      <trkpt lat="27.77593" lon="85.37657"><ele>1701</ele></trkpt>
      <trkpt lat="27.77601" lon="85.37606"><ele>1678</ele></trkpt>
      <trkpt lat="27.77610" lon="85.37553"><ele>1660</ele></trkpt>
      <trkpt lat="27.77622" lon="85.37499"><ele>1646</ele></trkpt>
      <trkpt lat="27.77636" lon="85.37443"><ele>1628</ele></trkpt>
      <trkpt lat="27.77652" lon="85.37383"><ele>1603</ele></trkpt>
      <trkpt lat="27.77671" lon="85.37321"><ele>1573</ele></trkpt>
      <trkpt lat="27.77692" lon="85.37256"><ele>1549</ele></trkpt>
      <trkpt lat="27.77717" lon="85.37189"><ele>1537</ele></trkpt>
      <trkpt lat="27.77745" lon="85.37119"><ele>1536</ele></trkpt>
      <trkpt lat="27.77777" lon="85.37047"><ele>1535</ele></trkpt>
      <trkpt lat="27.77812" lon="85.36976"><ele>1528</ele></trkpt>
      <trkpt lat="27.77850" lon="85.36904"><ele>1515</ele></trkpt>
      <trkpt lat="27.77892" lon="85.36834"><ele>1504</ele></trkpt>
      <trkpt lat="27.77938" lon="85.36767"><ele>1500</ele></trkpt>
      <trkpt lat="27.77988" lon="85.36704"><ele>1500</ele></trkpt>
      <trkpt lat="27.78041" lon="85.36647"><ele>1495</ele></trkpt>
      <trkpt lat="27.78097" lon="85.36595"><ele>1479</ele></trkpt>
      <trkpt lat="27.78157" lon="85.36551"><ele>1454</ele></trkpt>
      <trkpt lat="27.78220" lon="85.36514"><ele>1429</ele></trkpt>
      <trkpt lat="27.78286" lon="85.36486"><ele>1413</ele></trkpt>
      <trkpt lat="27.78354" lon="85.36466"><ele>1405</ele></trkpt>
      <trkpt lat="27.78425" lon="85.36454"><ele>1400</ele></trkpt>
      <trkpt lat="27.78497" lon="85.36450"><ele>1391</ele></trkpt>
      <trkpt lat="27.78572" lon="85.36453"><ele>1379</ele></trkpt>
      <trkpt lat="27.78647" lon="85.36464"><ele>1371</ele></trkpt>
      <trkpt lat="27.78723" lon="85.36480"><ele>1375</ele></trkpt>
      <trkpt lat="27.78800" lon="85.36500"><ele>1390</ele></trkpt>
    </trkseg>
  </trk>
</gpx>
